[{"OBJECT_NAME":"STARLINK-2371","OBJECT_ID":"2021-021BD","EPOCH":"2026-03-09T21:41:50.826336","MEAN_MOTION":15.30182203,"ECCENTRICITY":0.00011884,"INCLINATION":53.16,"RA_OF_ASC_NODE":279.9967,"ARG_OF_PERICENTER":91.3442,"MEAN_ANOMALY":268.7695,"EPHEMERIS_TYPE":0,"CLASSIFICATION_TYPE":"U","NORAD_CAT_ID":47911,"ELEMENT_SET_NO":999,"REV_AT_EPOCH":27594,"BSTAR":3.4458377e-5,"MEAN_MOTION_DOT":6.61e-6,"MEAN_MOTION_DDOT":0},{"OBJECT_NAME":"PUCP-SAT 1","OBJECT_ID":"2013-066AC","EPOCH":"2026-03-09T22:02:13.763904","MEAN_MOTION":15.29426022,"ECCENTRICITY":0.00136836,"INCLINATION":97.5787,"RA_OF_ASC_NODE":61.0032,"ARG_OF_PERICENTER":300.1183,"MEAN_ANOMALY":59.87,"EPHEMERIS_TYPE":0,"CLASSIFICATION_TYPE":"U","NORAD_CAT_ID":39442,"ELEMENT_SET_NO":999,"REV_AT_EPOCH":66907,"BSTAR":0.00088755185,"MEAN_MOTION_DOT":0.00025373,"MEAN_MOTION_DDOT":0}]
